0 ONEWEB-0415
1 51624U 22012C   24144.67393811 -.00000375  00000-0 -11110-2 0  9991
2 51624  87.8952 186.2690 0002220  86.9573 273.1809 13.10370734110477
0 ONEWEB-0416
1 51625U 22012D   24144.60919523 -.00000588  00000-0 -17203-2 0  9994
2 51625  87.8963 186.2757 0002026  94.6085 265.5274 13.10372712110505
0 ONEWEB-0422
1 51626U 22012E   24144.57364612  .00000073  00000-0  15432-3 0  9994
2 51626  87.9165 156.0497 0002471 106.3287 253.8116 13.17647455114433
0 ONEWEB-0423
1 51627U 22012F   24144.56731688  .00000098  00000-0  22005-3 0  9996
2 51627  87.9167 156.0514 0001930  92.2867 267.8485 13.17651404114323
0 ONEWEB-0425
1 51628U 22012G   24144.61915989 -.00000473  00000-0 -13926-2 0  9991
2 51628  87.8960 186.2580 0001639  97.8128 262.3185 13.10375626110504
0 ONEWEB-0431
1 51630U 22012J   24144.64560855  .00000651  00000-0  18271-2 0  9999
2 51630  87.8949 186.2663 0002768  90.3093 269.8351 13.10373033110528
0 ONEWEB-0434
1 51631U 22012K   24144.62248603 -.00000062  00000-0 -21474-3 0  9990
2 51631  87.8961 186.2839 0002118  99.5448 260.5919 13.10377107110504
